{"type": "FeatureCollection", "features": [ {"type": "Feature", "properties": {"norad_id": 32089, "name": "FENGYUN 1C DEB", "group": "fengyun-1c-debris", "lat": -27.94922953343676, "lon": -11.92448889493967, "alt_km": 932.0857765216724, "timestamp": "2025-12-03T13:52:09.847289+00:00", "meta": {"OBJECT_NAME": "FENGYUN 1C DEB", "OBJECT_ID": "1999-025CQF", "EPOCH": "2025-11-26T07:05:08.743776", "MEAN_MOTION": 14.1401839, "ECCENTRICITY": 0.01118311, "INCLINATION": 98.6554, "RA_OF_ASC_NODE": 336.3858, "ARG_OF_PERICENTER": 170.8108, "MEAN_ANOMALY": 189.5147, "EPHEMERIS_TYPE": 0, "CLASSIFICATION_TYPE": "U", "NORAD_CAT_ID": 32089, "ELEMENT_SET_NO": 999, "REV_AT_EPOCH": 62983, "BSTAR": 0.00062311827, "MEAN_MOTION_DOT": 1.215e-05, "MEAN_MOTION_DDOT": 0}, "tle": {"line1": "1 32089U 99025CQF 25330.29524009  .00001215  00000+0  62312-3 0  9996", "line2": "2 32089  98.6554 336.3858 0111831 170.8108 189.5147 14.14018390629831"}}, "geometry": {"type": "Point", "coordinates": [-11.92448889493967, -27.94922953343676]}}, {"type": "Feature", "properties": {"norad_id": 32093, "name": "FENGYUN 1C DEB", "group": "fengyun-1c-debris", "lat": 4.143518806568861, "lon": 10.720405445318168, "alt_km": 820.6569608033469, "timestamp": "2025-12-03T13:52:09.847300+00:00", "meta": {"OBJECT_NAME": "FENGYUN 1C DEB", "OBJECT_ID": "1999-025CQK", "EPOCH": "2025-12-03T01:21:54.068256", "MEAN_MOTION": 14.37564679, "ECCENTRICITY": 0.00798444, "INCLINATION": 98.9206, "RA_OF_ASC_NODE": 189.5281, "ARG_OF_PERICENTER": 21.9826, "MEAN_ANOMALY": 338.4753, "EPHEMERIS_TYPE": 0, "CLASSIFICATION_TYPE": "U", "NORAD_CAT_ID": 32093, "ELEMENT_SET_NO": 999, "REV_AT_EPOCH": 96378, "BSTAR": 0.00052363657, "MEAN_MOTION_DOT": 1.581e-05, "MEAN_MOTION_DDOT": 0}, "tle": {"line1": "1 32093U 99025CQK 25337.05687579  .00001581  00000+0  52364-3 0  9996", "line2": "2 32093  98.9206 189.5281 0079844  21.9826 338.4753 14.37564679963785"}}, "geometry": {"type": "Point", "coordinates": [10.720405445318168, 4.143518806568861]}}, {"type": "Feature", "properties": {"norad_id": 32094, "name": "FENGYUN 1C DEB", "group": "fengyun-1c-debris", "lat": 51.91811040192034, "lon": 159.56549839645882, "alt_km": 876.3958476456128, "timestamp": "2025-12-03T13:52:09.847310+00:00", "meta": {"OBJECT_NAME": "FENGYUN 1C DEB", "OBJECT_ID": "1999-025CQL", "EPOCH": "2025-12-01T22:06:55.792512", "MEAN_MOTION": 14.10702032, "ECCENTRICITY": 0.00343203, "INCLINATION": 98.7444, "RA_OF_ASC_NODE": 326.6263, "ARG_OF_PERICENTER": 300.0247, "MEAN_ANOMALY": 59.7521, "EPHEMERIS_TYPE": 0, "CLASSIFICATION_TYPE": "U", "NORAD_CAT_ID": 32094, "ELEMENT_SET_NO": 999, "REV_AT_EPOCH": 94212, "BSTAR": 0.00046947738, "MEAN_MOTION_DOT": 8e-06, "MEAN_MOTION_DDOT": 0}, "tle": {"line1": "1 32094U 99025CQL 25335.92147908  .00000800  00000+0  46948-3 0  9992", "line2": "2 32094  98.7444 326.6263 0034320 300.0247  59.7521 14.10702032942129"}}, "geometry": {"type": "Point", "coordinates": [159.56549839645882, 51.91811040192034]}}, {"type": "Feature", "properties": {"norad_id": 32095, "name": "FENGYUN 1C DEB", "group": "fengyun-1c-debris", "lat": 54.5846869146972, "lon": -174.1843222220358, "alt_km": 776.8605705579776, "timestamp": "2025-12-03T13:52:09.847320+00:00", "meta": {"OBJECT_NAME": "FENGYUN 1C DEB", "OBJECT_ID": "1999-025CQM", "EPOCH": "2025-12-01T18:53:30.579936", "MEAN_MOTION": 14.16020076, "ECCENTRICITY": 0.00791206, "INCLINATION": 98.6419, "RA_OF_ASC_NODE": 351.7287, "ARG_OF_PERICENTER": 123.2072, "MEAN_ANOMALY": 237.6721, "EPHEMERIS_TYPE": 0, "CLASSIFICATION_TYPE": "U", "NORAD_CAT_ID": 32095, "ELEMENT_SET_NO": 999, "REV_AT_EPOCH": 94662, "BSTAR": 0.00029755138, "MEAN_MOTION_DOT": 5.63e-06, "MEAN_MOTION_DDOT": 0}, "tle": {"line1": "1 32095U 99025CQM 25335.78715949  .00000563  00000+0  29755-3 0  9996", "line2": "2 32095  98.6419 351.7287 0079120 123.2072 237.6721 14.16020076946629"}}, "geometry": {"type": "Point", "coordinates": [-174.1843222220358, 54.5846869146972]}}, {"type": "Feature", "properties": {"norad_id": 32096, "name": "FENGYUN 1C DEB", "group": "fengyun-1c-debris", "lat": 44.50954057920477, "lon": -2.250513216272155, "alt_km": 971.304323941129, "timestamp": "2025-12-03T13:52:09.847331+00:00", "meta": {"OBJECT_NAME": "FENGYUN 1C DEB", "OBJECT_ID": "1999-025CQN", "EPOCH": "2025-12-01T13:16:49.852128", "MEAN_MOTION": 13.9013068, "ECCENTRICITY": 0.01346343, "INCLINATION": 99.0772, "RA_OF_ASC_NODE": 4.8151, "ARG_OF_PERICENTER": 170.0146, "MEAN_ANOMALY": 190.3736, "EPHEMERIS_TYPE": 0, "CLASSIFICATION_TYPE": "U", "NORAD_CAT_ID": 32096, "ELEMENT_SET_NO": 999, "REV_AT_EPOCH": 92706, "BSTAR": 0.0012264124, "MEAN_MOTION_DOT": 1.588e-05, "MEAN_MOTION_DDOT": 0}, "tle": {"line1": "1 32096U 99025CQN 25335.55335477  .00001588  00000+0  12264-2 0  9990", "line2": "2 32096  99.0772   4.8151 0134634 170.0146 190.3736 13.90130680927069"}}, "geometry": {"type": "Point", "coordinates": [-2.250513216272155, 44.50954057920477]}}, {"type": "Feature", "properties": {"norad_id": 32098, "name": "FENGYUN 1C DEB", "group": "fengyun-1c-debris", "lat": 2.4277024654875117, "lon": 150.62606274001016, "alt_km": 706.0754064790463, "timestamp": "2025-12-03T13:52:09.847341+00:00", "meta": {"OBJECT_NAME": "FENGYUN 1C DEB", "OBJECT_ID": "1999-025CQQ", "EPOCH": "2025-11-29T05:54:21.217824", "MEAN_MOTION": 14.20229965, "ECCENTRICITY": 0.01954302, "INCLINATION": 98.6126, "RA_OF_ASC_NODE": 326.0376, "ARG_OF_PERICENTER": 158.6882, "MEAN_ANOMALY": 202.2577, "EPHEMERIS_TYPE": 0, "CLASSIFICATION_TYPE": "U", "NORAD_CAT_ID": 32098, "ELEMENT_SET_NO": 999, "REV_AT_EPOCH": 64036, "BSTAR": 0.00026691948, "MEAN_MOTION_DOT": 6.47e-06, "MEAN_MOTION_DDOT": 0}, "tle": {"line1": "1 32098U 99025CQQ 25333.24607891  .00000647  00000+0  26692-3 0  9994", "line2": "2 32098  98.6126 326.0376 0195430 158.6882 202.2577 14.20229965640367"}}, "geometry": {"type": "Point", "coordinates": [150.62606274001016, 2.4277024654875117]}}, {"type": "Feature", "properties": {"norad_id": 32099, "name": "FENGYUN 1C DEB", "group": "fengyun-1c-debris", "lat": 25.324894684464503, "lon": 134.3263818146052, "alt_km": 1128.0795228549532, "timestamp": "2025-12-03T13:52:09.847351+00:00", "meta": {"OBJECT_NAME": "FENGYUN 1C DEB", "OBJECT_ID": "1999-025CQR", "EPOCH": "2025-12-03T04:33:36.004320", "MEAN_MOTION": 13.91678631, "ECCENTRICITY": 0.03436256, "INCLINATION": 98.2796, "RA_OF_ASC_NODE": 310.028, "ARG_OF_PERICENTER": 301.742, "MEAN_ANOMALY": 72.5014, "EPHEMERIS_TYPE": 0, "CLASSIFICATION_TYPE": "U", "NORAD_CAT_ID": 32099, "ELEMENT_SET_NO": 999, "REV_AT_EPOCH": 64555, "BSTAR": 0.0022629905, "MEAN_MOTION_DOT": 4.614e-05, "MEAN_MOTION_DDOT": 0}, "tle": {"line1": "1 32099U 99025CQR 25337.19000005  .00004614  00000+0  22630-2 0  9992", "line2": "2 32099  98.2796 310.0280 0343625 301.7420  72.5014 13.91678631645559"}}, "geometry": {"type": "Point", "coordinates": [134.3263818146052, 25.324894684464503]}}, {"type": "Feature", "properties": {"norad_id": 32101, "name": "FENGYUN 1C DEB", "group": "fengyun-1c-debris", "lat": -79.30955280953748, "lon": -65.87693019348335, "alt_km": 808.9130679055443, "timestamp": "2025-12-03T13:52:09.847361+00:00", "meta": {"OBJECT_NAME": "FENGYUN 1C DEB", "OBJECT_ID": "1999-025CQT", "EPOCH": "2025-12-02T10:51:08.226720", "MEAN_MOTION": 14.0154371, "ECCENTRICITY": 0.01218021, "INCLINATION": 99.0307, "RA_OF_ASC_NODE": 235.6114, "ARG_OF_PERICENTER": 267.4856, "MEAN_ANOMALY": 91.2361, "EPHEMERIS_TYPE": 0, "CLASSIFICATION_TYPE": "U", "NORAD_CAT_ID": 32101, "ELEMENT_SET_NO": 999, "REV_AT_EPOCH": 93038, "BSTAR": 0.0026974612, "MEAN_MOTION_DOT": 4.309e-05, "MEAN_MOTION_DDOT": 0}, "tle": {"line1": "1 32101U 99025CQT 25336.45217855  .00004309  00000+0  26975-2 0  9994", "line2": "2 32101  99.0307 235.6114 0121802 267.4856  91.2361 14.01543710930382"}}, "geometry": {"type": "Point", "coordinates": [-65.87693019348335, -79.30955280953748]}}, {"type": "Feature", "properties": {"norad_id": 32105, "name": "FENGYUN 1C DEB", "group": "fengyun-1c-debris", "lat": 73.34613559687887, "lon": -87.13162196343846, "alt_km": 814.7382328889826, "timestamp": "2025-12-03T13:52:09.847372+00:00", "meta": {"OBJECT_NAME": "FENGYUN 1C DEB", "OBJECT_ID": "1999-025CQX", "EPOCH": "2025-12-02T19:34:22.008000", "MEAN_MOTION": 13.40202446, "ECCENTRICITY": 0.03938261, "INCLINATION": 103.4621, "RA_OF_ASC_NODE": 325.0549, "ARG_OF_PERICENTER": 95.9408, "MEAN_ANOMALY": 268.6726, "EPHEMERIS_TYPE": 0, "CLASSIFICATION_TYPE": "U", "NORAD_CAT_ID": 32105, "ELEMENT_SET_NO": 999, "REV_AT_EPOCH": 59578, "BSTAR": 0.0030920356, "MEAN_MOTION_DOT": 2.593e-05, "MEAN_MOTION_DDOT": 0}, "tle": {"line1": "1 32105U 99025CQX 25336.81553250  .00002593  00000+0  30920-2 0  9998", "line2": "2 32105 103.4621 325.0549 0393826  95.9408 268.6726 13.40202446595781"}}, "geometry": {"type": "Point", "coordinates": [-87.13162196343846, 73.34613559687887]}}, {"type": "Feature", "properties": {"norad_id": 32106, "name": "FENGYUN 1C DEB", "group": "fengyun-1c-debris", "lat": 40.98878179377882, "lon": -63.99660963262996, "alt_km": 727.4511405123112, "timestamp": "2025-12-03T13:52:09.847382+00:00", "meta": {"OBJECT_NAME": "FENGYUN 1C DEB", "OBJECT_ID": "1999-025CQY", "EPOCH": "2025-12-01T04:26:59.805888", "MEAN_MOTION": 14.26624695, "ECCENTRICITY": 0.01094883, "INCLINATION": 101.4616, "RA_OF_ASC_NODE": 303.0332, "ARG_OF_PERICENTER": 72.2765, "MEAN_ANOMALY": 289.032, "EPHEMERIS_TYPE": 0, "CLASSIFICATION_TYPE": "U", "NORAD_CAT_ID": 32106, "ELEMENT_SET_NO": 999, "REV_AT_EPOCH": 69227, "BSTAR": 0.0038557998, "MEAN_MOTION_DOT": 9.872e-05, "MEAN_MOTION_DDOT": 0}, "tle": {"line1": "1 32106U 99025CQY 25335.18541442  .00009872  00000+0  38558-2 0  9990", "line2": "2 32106 101.4616 303.0332 0109488  72.2765 289.0320 14.26624695692271"}}, "geometry": {"type": "Point", "coordinates": [-63.99660963262996, 40.98878179377882]}}]}